NORAD_CAT_ID,OBJECT_NAME,OBJECT_TYPE,EPOCH,MEAN_MOTION,ECCENTRICITY,INCLINATION,RA_OF_ASC_NODE,ARG_OF_PERICENTER,MEAN_ANOMALY,BSTAR,MEAN_MOTION_DOT,MEAN_MOTION_DDOT,TLE_LINE0,TLE_LINE1,TLE_LINE2,SEMIMAJOR_AXIS,PERIOD,APOGEE,PERIGEE,DECAYED
53605.0,STARLINK-4693,PAYLOAD,2022-10-03 14:00:01,15.36418282,0.0001152,53.2166,110.4043,90.3463,345.6705,-0.035446,-0.01163678,0.0,0 STARLINK-4693,1 53605U 22104T   22276.58334491 -.01163678  00000-0 -35446-1 0  9991,2 53605  53.2166 110.4043 0001152  90.3463 345.6705 15.36418282  1305,6834.848000000001,93.724,457.5,455.926,0.0
53605.0,STARLINK-4693,PAYLOAD,2022-10-03 22:00:00,15.35607679,0.0001272,53.217,108.8466,97.4015,22.8245,-0.036079,-0.01154688,0.0,0 STARLINK-4693,1 53605U 22104T   22276.91667824 -.01154688  00000-0 -36079-1 0  9991,2 53605  53.2170 108.8466 0001272  97.4015  22.8245 15.35607679  1306,6837.253000000002,93.774,459.98800000000006,458.24800000000016,0.0
53605.0,STARLINK-4693,PAYLOAD,2022-10-04 06:00:00,15.34782415,0.0001303,53.2173,107.2871,94.5841,68.8953,-0.036009,-0.0112501,0.0,0 STARLINK-4693,1 53605U 22104T   22277.25001157 -.01125010  00000-0 -36009-1 0  9990,2 53605  53.2173 107.2871 0001303  94.5841  68.8953 15.34782415  5831,6839.704000000002,93.824,462.46,460.67800000000005,0.0
53605.0,STARLINK-4693,PAYLOAD,2022-10-04 14:00:01,15.34009203,0.0001365,53.2167,105.7304,99.833,105.9073,-0.038296,-0.01163511,0.0,0 STARLINK-4693,1 53605U 22104T   22277.58334491 -.01163511  00000-0 -38296-1 0  9994,2 53605  53.2167 105.7304 0001365  99.8330 105.9073 15.34009203  1308,6842.002,93.872,464.801,462.9330000000001,0.0
53605.0,STARLINK-4693,PAYLOAD,2022-10-04 22:00:00,15.33175144,0.0001341999999999,53.2175,104.1783,96.3017,150.7645,-0.037781,-0.01121656,0.0,0 STARLINK-4693,1 53605U 22104T   22277.91667824 -.01121656  00000-0 -37781-1 0  9992,2 53605  53.2175 104.1783 0001342  96.3017 150.7645 15.33175144  1300,6844.483,93.923,467.267,465.43,0.0
53605.0,STARLINK-4693,PAYLOAD,2022-10-05 06:00:00,15.32375356,0.0001252,53.2175,102.6244,103.2708,184.1418,-0.038965,-0.01127314,0.0,0 STARLINK-4693,1 53605U 22104T   22278.25001157 -.01127314  00000-0 -38965-1 0  9993,2 53605  53.2175 102.6244 0001252 103.2708 184.1418 15.32375356  5983,6846.865,93.972,469.587,467.872,0.0
53605.0,STARLINK-4693,PAYLOAD,2022-10-05 14:00:01,15.31580623,0.000117,53.217,101.0734,92.0447,234.8093,-0.040345,-0.01137389,0.0,0 STARLINK-4693,1 53605U 22104T   22278.58335648 -.01137389  00000-0 -40345-1 0  9992,2 53605  53.2170 101.0734 0001170  92.0447 234.8093 15.31580623  1307,6849.233,94.021,471.899,470.297,0.0
53605.0,STARLINK-4693,PAYLOAD,2022-10-05 22:00:00,15.30766886,0.0001139999999999,53.2175,99.527,83.0108,282.2002,-0.040792,-0.01122408,0.0,0 STARLINK-4693,1 53605U 22104T   22278.91667824 -.01122408  00000-0 -40792-1 0  9995,2 53605  53.2175  99.5270 0001140  83.0108 282.2002 15.30766886  1302,6851.66,94.07,474.306,472.744,0.0
53605.0,STARLINK-4693,PAYLOAD,2022-10-06 06:00:00,15.29962703,0.0001119,53.2174,97.9786,85.8527,316.8125,-0.041794,-0.01121557,0.0,0 STARLINK-4693,1 53605U 22104T   22279.25001157 -.01121557  00000-0 -41794-1 0  9991,2 53605  53.2174  97.9786 0001119  85.8527 316.8125 15.29962703  6147,6854.061,94.12,476.693,475.159,0.0
53605.0,STARLINK-4693,PAYLOAD,2022-10-06 14:00:01,15.29164432,0.0001281,53.2169,96.4335,84.1683,354.9816,-0.043075,-0.01127147,0.0,0 STARLINK-4693,1 53605U 22104T   22279.58334491 -.01127147  00000-0 -43075-1 0  9992,2 53605  53.2169  96.4335 0001281  84.1683 354.9816 15.29164432  1306,6856.446,94.169,479.189,477.4330000000001,0.0
53605.0,STARLINK-4693,PAYLOAD,2022-10-06 22:42:55,15.28290281,0.0001341,53.2171,94.7548,104.5409,174.1326,-0.0442199999999999,-0.01126371,0.0,0 STARLINK-4693,1 53605U 22104T   22279.94646991 -.01126371  00000-0 -44220-1 0  9994,2 53605  53.2171  94.7548 0001341 104.5409 174.1326 15.28290281  1305,6859.06,94.223,481.845,480.005,0.0
53605.0,STARLINK-4693,PAYLOAD,2022-10-07 06:00:00,15.27554537,0.0001333,53.2175,93.35,102.6012,46.6304,-0.04498,-0.01120647,0.0,0 STARLINK-4693,1 53605U 22104T   22280.25001157 -.01120647  00000-0 -44980-1 0  9992,2 53605  53.2175  93.3500 0001333 102.6012  46.6304 15.27554537  6290,6861.262,94.268,484.042,482.213,0.0
53605.0,STARLINK-4693,PAYLOAD,2022-10-07 14:00:01,15.26751928,0.0001425,53.2176,91.8111,104.1737,78.6504,-0.046117,-0.01121087,0.0,0 STARLINK-4693,1 53605U 22104T   22280.58334491 -.01121087  00000-0 -46117-1 0  9991,2 53605  53.2176  91.8111 0001425 104.1737  78.6504 15.26751928  1301,6863.667,94.318,486.51,484.554,0.0
53605.0,STARLINK-4693,PAYLOAD,2022-10-07 22:00:00,15.25952526,0.0001436,53.2172,90.2752,100.3213,115.128,-0.047424,-0.01124792,0.0,0 STARLINK-4693,1 53605U 22104T   22280.91667824 -.01124792  00000-0 -47424-1 0  9995,2 53605  53.2172  90.2752 0001436 100.3213 115.1280 15.25952526  1304,6866.064,94.367,488.915,486.943,0.0
53605.0,STARLINK-4693,PAYLOAD,2022-10-08 06:00:00,15.25144077,0.0001319,53.2175,88.7382,92.5186,154.5979,-0.048275,-0.01117895,0.0,0 STARLINK-4693,1 53605U 22104T   22281.25001157 -.01117895  00000-0 -48275-1 0  9995,2 53605  53.2175  88.7382 0001319  92.5186 154.5979 15.25144077  6445,6868.49,94.417,491.261,489.449,0.0
53605.0,STARLINK-4693,PAYLOAD,2022-10-08 14:00:01,15.24346694,0.0001279,53.217,87.2047,89.3035,188.5086,-0.049817,-0.01140374,0.0,0 STARLINK-4693,1 53605U 22104T   22281.58334491 -.01140374  00000-0 -49817-1 0  9992,2 53605  53.2170  87.2047 0001279  89.3035 188.5086 15.24346694  1308,6870.885,94.467,493.629,491.871,0.0
53605.0,STARLINK-4693,PAYLOAD,2022-10-08 22:00:00,15.23546904,0.0001239,53.2172,85.6748,82.4599,225.0828,-0.051181,-0.01143571,0.0,0 STARLINK-4693,1 53605U 22104T   22281.91667824 -.01143571  00000-0 -51181-1 0  9997,2 53605  53.2172  85.6748 0001239  82.4599 225.0828 15.23546904  1301,6873.2890000000025,94.516,496.006,494.30300000000005,0.0
53605.0,STARLINK-4693,PAYLOAD,2022-10-09 06:00:00,15.22734832,0.0001152,53.2174,84.1436,88.1994,248.1177,-0.051846,-0.01131645,0.0,0 STARLINK-4693,1 53605U 22104T   22282.25001157 -.01131645  00000-0 -51846-1 0  9993,2 53605  53.2174  84.1436 0001152  88.1994 248.1177 15.22734832  6606,6875.733,94.567,498.39,496.806,0.0
53605.0,STARLINK-4693,PAYLOAD,2022-10-09 14:00:01,15.21941272,0.0001217999999999,53.2171,82.6156,82.9203,281.1962,-0.053749,-0.01144793,0.0,0 STARLINK-4693,1 53605U 22104T   22282.58334491 -.01144793  00000-0 -53749-1 0  9991,2 53605  53.2171  82.6156 0001218  82.9203 281.1962 15.21941272  1301,6878.123000000001,94.616,500.825,499.15,0.0
53605.0,STARLINK-4693,PAYLOAD,2022-10-09 22:00:00,15.21129983,0.0001169,53.2173,81.0916,75.2095,315.7486,-0.054379,-0.01131812,0.0,0 STARLINK-4693,1 53605U 22104T   22282.91667824 -.01131812  00000-0 -54379-1 0  9995,2 53605  53.2173  81.0916 0001169  75.2095 315.7486 15.21129983  1301,6880.568,94.666,503.237,501.629,0.0
53605.0,STARLINK-4693,PAYLOAD,2022-10-10 06:00:00,15.20327034,0.0001167999999999,53.2174,79.5657,78.6256,338.2082,-0.055722,-0.01132623,0.0,0 STARLINK-4693,1 53605U 22104T   22283.25001157 -.01132623  00000-0 -55722-1 0  9998,2 53605  53.2174  79.5657 0001168  78.6256 338.2082 15.20327034  6753,6882.99,94.716,505.659,504.051,0.0
53605.0,STARLINK-4693,PAYLOAD,2022-10-10 14:00:01,15.19526167,0.0001295,53.2174,78.0444,72.8177,8.9242,-0.0572149999999999,-0.0113578,0.0,0 STARLINK-4693,1 53605U 22104T   22283.58334491 -.01135780  00000-0 -57215-1 0  9990,2 53605  53.2174  78.0444 0001295  72.8177   8.9242 15.19526167  1301,6885.409000000002,94.766,508.165,506.382,0.0
53605.0,STARLINK-4693,PAYLOAD,2022-10-10 22:00:01,15.18720521,0.000133,53.2172,76.525,69.1168,36.6334,-0.058285,-0.01130596,0.0,0 STARLINK-4693,1 53605U 22104T   22283.91668981 -.01130596  00000-0 -58285-1 0  9999,2 53605  53.2172  76.5250 0001330  69.1168  36.6334 15.18720521  1305,6887.843000000003,94.817,510.625,508.792,0.0
53605.0,STARLINK-4693,PAYLOAD,2022-10-11 06:00:00,15.17918156,0.0001375,53.2173,75.0048,68.7317,59.93600000000001,-0.0597409999999999,-0.0113206,0.0,0 STARLINK-4693,1 53605U 22104T   22284.25001157 -.01132060  00000-0 -59741-1 0  9999,2 53605  53.2173  75.0048 0001375  68.7317  59.9360 15.17918156  6905,6890.27,94.867,513.0830000000002,511.18800000000016,0.0
53605.0,STARLINK-4693,PAYLOAD,2022-10-11 14:00:01,15.17115951,0.0001425,53.2174,73.4891,75.1851,75.4968,-0.0612059999999999,-0.01133174,0.0,0 STARLINK-4693,1 53605U 22104T   22284.58334491 -.01133174  00000-0 -61206-1 0  9991,2 53605  53.2174  73.4891 0001425  75.1851  75.4968 15.17115951  1303,6892.699000000001,94.917,515.5459999999998,513.582,0.0
53605.0,STARLINK-4693,PAYLOAD,2022-10-11 22:00:00,15.16319918,0.000144,53.2172,71.9751,77.5528,94.1754,-0.063139,-0.01141796,0.0,0 STARLINK-4693,1 53605U 22104T   22284.91667824 -.01141796  00000-0 -63139-1 0  9993,2 53605  53.2172  71.9751 0001440  77.5528  94.1754 15.16319918  1302,6895.111,94.967,517.969,515.9830000000002,0.0
53605.0,STARLINK-4693,PAYLOAD,2022-10-12 14:00:01,15.14705856,0.0001498,53.2174,68.9509,69.7158,141.2225,-0.065409,-0.01130492,0.0,0 STARLINK-4693,1 53605U 22104T   22285.58334491 -.01130492  00000-0 -65409-1 0  9991,2 53605  53.2174  68.9509 0001498  69.7158 141.2225 15.14705856  1301,6900.009,95.068,522.9069999999998,520.84,0.0
53605.0,STARLINK-4693,PAYLOAD,2022-10-12 22:00:00,15.13904338,0.0001450999999999,53.2171,67.4425,67.7724,161.3206,-0.0670279999999999,-0.01132272,0.0,0 STARLINK-4693,1 53605U 22104T   22285.91667824 -.01132272  00000-0 -67028-1 0  9994,2 53605  53.2171  67.4425 0001451  67.7724 161.3206 15.13904338  1302,6902.444,95.118,525.31,523.307,0.0
53605.0,STARLINK-4693,PAYLOAD,2022-10-13 06:00:00,15.13099954,0.0001388,53.2173,65.9335,73.9978,172.2878,-0.068434,-0.0113021,0.0,0 STARLINK-4693,1 53605U 22104T   22286.25001157 -.01130210  00000-0 -68434-1 0  9995,2 53605  53.2173  65.9335 0001388  73.9978 172.2878 15.13099954  7206,6904.89,95.169,527.7130000000002,525.797,0.0
